{
  "type": "FeatureCollection",
  "features": [
    {
      "type": "Feature",
      "properties": {
        "norad_id": 43706,
        "name": "BEIDOU-3 M17 (C36)",
        "group": "beidou",
        "lat": -23.735852957571733,
        "lon": 169.66882022518297,
        "alt_km": 21515.907001906427,
        "timestamp": "2025-12-25T07:00:34.311396+00:00",
        "meta_object_name": "BEIDOU-3 M17 (C36)",
        "meta_object_id": "2018-093A",
        "meta_epoch": "2025-12-22T11:03:17.644896",
        "meta_mean_motion": 1.86228432,
        "meta_eccentricity": 0.00060427,
        "meta_inclination": 54.173,
        "meta_ra_of_asc_node": 188.2918,
        "meta_arg_of_pericenter": 307.405,
        "meta_mean_anomaly": 284.4943,
        "meta_ephemeris_type": 0,
        "meta_classification_type": "U",
        "meta_norad_cat_id": 43706,
        "meta_element_set_no": 999,
        "meta_rev_at_epoch": 4824,
        "meta_bstar": 0,
        "meta_mean_motion_dot": 9.4e-07,
        "meta_mean_motion_ddot": 0,
        "tle_line1": "1 43706U 18093A   25356.46062089  .00000094  00000+0  00000+0 0  9998",
        "tle_line2": "2 43706  54.1730 188.2918 0006042 307.4050 284.4943  1.86228432 48248"
      },
      "geometry": {
        "type": "Point",
        "coordinates": [
          169.66882022518297,
          -23.735852957571733
        ]
      }
    },
    {
      "type": "Feature",
      "properties": {
        "norad_id": 43707,
        "name": "BEIDOU-3 M18 (C37)",
        "group": "beidou",
        "lat": 46.27536554813111,
        "lon": -122.73151808846562,
        "alt_km": 21516.746388310068,
        "timestamp": "2025-12-25T07:00:34.311407+00:00",
        "meta_object_name": "BEIDOU-3 M18 (C37)",
        "meta_object_id": "2018-093B",
        "meta_epoch": "2025-12-23T01:12:21.238848",
        "meta_mean_motion": 1.86226616,
        "meta_eccentricity": 0.0006147,
        "meta_inclination": 54.1741,
        "meta_ra_of_asc_node": 188.2636,
        "meta_arg_of_pericenter": 354.1254,
        "meta_mean_anomaly": 5.9078,
        "meta_ephemeris_type": 0,
        "meta_classification_type": "U",
        "meta_norad_cat_id": 43707,
        "meta_element_set_no": 999,
        "meta_rev_at_epoch": 4825,
        "meta_bstar": 0,
        "meta_mean_motion_dot": 9.6e-07,
        "meta_mean_motion_ddot": 0,
        "tle_line1": "1 43707U 18093B   25357.05024582  .00000096  00000+0  00000+0 0  9993",
        "tle_line2": "2 43707  54.1741 188.2636 0006147 354.1254   5.9078  1.86226616 48257"
      },
      "geometry": {
        "type": "Point",
        "coordinates": [
          -122.73151808846562,
          46.27536554813111
        ]
      }
    },
    {
      "type": "Feature",
      "properties": {
        "norad_id": 44231,
        "name": "BEIDOU-2 G8 (C01)",
        "group": "beidou",
        "lat": -1.7022061711073861,
        "lon": -16.278085980656318,
        "alt_km": 35751.200238546386,
        "timestamp": "2025-12-25T07:00:34.311420+00:00",
        "meta_object_name": "BEIDOU-2 G8 (C01)",
        "meta_object_id": "2019-027A",
        "meta_epoch": "2025-12-24T22:20:47.936832",
        "meta_mean_motion": 1.0027457,
        "meta_eccentricity": 0.00082946,
        "meta_inclination": 1.6908,
        "meta_ra_of_asc_node": 74.7358,
        "meta_arg_of_pericenter": 259.0512,
        "meta_mean_anomaly": 239.621,
        "meta_ephemeris_type": 0,
        "meta_classification_type": "U",
        "meta_norad_cat_id": 44231,
        "meta_element_set_no": 999,
        "meta_rev_at_epoch": 2433,
        "meta_bstar": 0,
        "meta_mean_motion_dot": -2.26e-06,
        "meta_mean_motion_ddot": 0,
        "tle_line1": "1 44231U 19027A   25358.93111038 -.00000226  00000+0  00000+0 0  9991",
        "tle_line2": "2 44231   1.6908  74.7358 0008294 259.0512 239.6210  1.00274570 24332"
      },
      "geometry": {
        "type": "Point",
        "coordinates": [
          -16.278085980656318,
          -1.7022061711073861
        ]
      }
    },
    {
      "type": "Feature",
      "properties": {
        "norad_id": 44337,
        "name": "BEIDOU-3 IGSO-2 (C39)",
        "group": "beidou",
        "lat": 17.994709243450572,
        "lon": -32.675393858307345,
        "alt_km": 35671.88073489566,
        "timestamp": "2025-12-25T07:00:34.311432+00:00",
        "meta_object_name": "BEIDOU-3 IGSO-2 (C39)",
        "meta_object_id": "2019-035A",
        "meta_epoch": "2025-12-24T20:30:50.966784",
        "meta_mean_motion": 1.00267539,
        "meta_eccentricity": 0.00378522,
        "meta_inclination": 55.2292,
        "meta_ra_of_asc_node": 160.3949,
        "meta_arg_of_pericenter": 202.5754,
        "meta_mean_anomaly": 157.6854,
        "meta_ephemeris_type": 0,
        "meta_classification_type": "U",
        "meta_norad_cat_id": 44337,
        "meta_element_set_no": 999,
        "meta_rev_at_epoch": 2392,
        "meta_bstar": 0,
        "meta_mean_motion_dot": -7e-07,
        "meta_mean_motion_ddot": 0,
        "tle_line1": "1 44337U 19035A   25358.85475656 -.00000070  00000+0  00000+0 0  9994",
        "tle_line2": "2 44337  55.2292 160.3949 0037852 202.5754 157.6854  1.00267539 23925"
      },
      "geometry": {
        "type": "Point",
        "coordinates": [
          -32.675393858307345,
          17.994709243450572
        ]
      }
    },
    {
      "type": "Feature",
      "properties": {
        "norad_id": 44542,
        "name": "BEIDOU-3 M24 (C46)",
        "group": "beidou",
        "lat": 12.557009686814846,
        "lon": -162.21903981432808,
        "alt_km": 21500.526438998015,
        "timestamp": "2025-12-25T07:00:34.311449+00:00",
        "meta_object_name": "BEIDOU-3 M24 (C46)",
        "meta_object_id": "2019-061A",
        "meta_epoch": "2025-12-24T04:40:53.254848",
        "meta_mean_motion": 1.86229374,
        "meta_eccentricity": 0.00095879,
        "meta_inclination": 54.4008,
        "meta_ra_of_asc_node": 188.6295,
        "meta_arg_of_pericenter": 26.2162,
        "meta_mean_anomaly": 333.8692,
        "meta_ephemeris_type": 0,
        "meta_classification_type": "U",
        "meta_norad_cat_id": 44542,
        "meta_element_set_no": 999,
        "meta_rev_at_epoch": 4253,
        "meta_bstar": 0,
        "meta_mean_motion_dot": 1.02e-06,
        "meta_mean_motion_ddot": 0,
        "tle_line1": "1 44542U 19061A   25358.19506082  .00000102  00000+0  00000+0 0  9991",
        "tle_line2": "2 44542  54.4008 188.6295 0009587  26.2162 333.8692  1.86229374 42539"
      },
      "geometry": {
        "type": "Point",
        "coordinates": [
          -162.21903981432808,
          12.557009686814846
        ]
      }
    },
    {
      "type": "Feature",
      "properties": {
        "norad_id": 44543,
        "name": "BEIDOU-3 M23 (C45)",
        "group": "beidou",
        "lat": -50.559605660684106,
        "lon": 127.95430157910381,
        "alt_km": 21536.29197967319,
        "timestamp": "2025-12-25T07:00:34.311463+00:00",
        "meta_object_name": "BEIDOU-3 M23 (C45)",
        "meta_object_id": "2019-061B",
        "meta_epoch": "2025-12-24T07:52:57.624672",
        "meta_mean_motion": 1.86227549,
        "meta_eccentricity": 0.00060312,
        "meta_inclination": 54.3996,
        "meta_ra_of_asc_node": 188.5933,
        "meta_arg_of_pericenter": 26.11,
        "meta_mean_anomaly": 336.0921,
        "meta_ephemeris_type": 0,
        "meta_classification_type": "U",
        "meta_norad_cat_id": 44543,
        "meta_element_set_no": 999,
        "meta_rev_at_epoch": 4254,
        "meta_bstar": 0,
        "meta_mean_motion_dot": 1.03e-06,
        "meta_mean_motion_ddot": 0,
        "tle_line1": "1 44543U 19061B   25358.32844473  .00000103  00000+0  00000+0 0  9997",
        "tle_line2": "2 44543  54.3996 188.5933 0006031  26.1100 336.0921  1.86227549 42548"
      },
      "geometry": {
        "type": "Point",
        "coordinates": [
          127.95430157910381,
          -50.559605660684106
        ]
      }
    },
    {
      "type": "Feature",
      "properties": {
        "norad_id": 44793,
        "name": "BEIDOU-3 M22 (C44)",
        "group": "beidou",
        "lat": 42.85677095409773,
        "lon": 83.75175174198573,
        "alt_km": 21525.353052250535,
        "timestamp": "2025-12-25T07:00:34.311475+00:00",
        "meta_object_name": "BEIDOU-3 M22 (C44)",
        "meta_object_id": "2019-078A",
        "meta_epoch": "2025-12-22T23:04:03.320256",
        "meta_mean_motion": 1.86232206,
        "meta_eccentricity": 0.00060944,
        "meta_inclination": 54.0989,
        "meta_ra_of_asc_node": 306.0279,
        "meta_arg_of_pericenter": 24.0205,
        "meta_mean_anomaly": 336.0117,
        "meta_ephemeris_type": 0,
        "meta_classification_type": "U",
        "meta_norad_cat_id": 44793,
        "meta_element_set_no": 999,
        "meta_rev_at_epoch": 4136,
        "meta_bstar": 0,
        "meta_mean_motion_dot": -5.4e-07,
        "meta_mean_motion_ddot": 0,
        "tle_line1": "1 44793U 19078A   25356.96114954 -.00000054  00000+0  00000+0 0  9990",
        "tle_line2": "2 44793  54.0989 306.0279 0006094  24.0205 336.0117  1.86232206 41368"
      },
      "geometry": {
        "type": "Point",
        "coordinates": [
          83.75175174198573,
          42.85677095409773
        ]
      }
    }
  ]
}